[
  {
    "name": "Mayur",
    "contact": 9009900990,
    "Location": "Pune",
    "Pincode": 411057
  },
  {
    "name": "Mayur",
    "contact": 9009900990,
    "Location": "Pune",
    "Pincode": 411057
  },
  {
    "name": "Mayur",
    "contact": 9009900990,
    "Location": "Pune",
    "Pincode": 411057
  },
  {
    "name": "Mayur",
    "contact": 9009900990,
    "Location": "Pune",
    "Pincode": 411057
  },
  {
    "name": "Mayur",
    "contact": 9009900990,
    "Location": "Pune",
    "Pincode": 411057
  },
  {
    "name": "Mayur",
    "contact": 9009900990,
    "Location": "Pune",
    "Pincode": 411057
  },
  {
    "name": "Mayur",
    "contact": 9009900990,
    "Location": "Pune",
    "Pincode": 411057
  },
  {
    "name": "Mayur",
    "contact": 9009900990,
    "Location": "Pune",
    "Pincode": 411057
  },
  {
    "name": "Mayur",
    "contact": 9009900990,
    "Location": "Pune",
    "Pincode": 411057
  },
  {
    "name": "Mayur",
    "contact": 9009900990,
    "Location": "Pune",
    "Pincode": 411057
  },
  {
    "name": "Mayur",
    "contact": 9009900990,
    "Location": "Pune",
    "Pincode": 411057
  },
  {
    "name": "Mayur",
    "contact": 9009900990,
    "Location": "Pune",
    "Pincode": 411057
  },
  {
    "name": "Mayur",
    "contact": 9009900990,
    "Location": "Pune",
    "Pincode": 411057
  },
  {
    "name": "Mayur",
    "contact": 9009900990,
    "Location": "Pune",
    "Pincode": 411057
  },
  {
    "name": "Mayur",
    "contact": 9009900990,
    "Location": "Pune",
    "Pincode": 411057
  },
  {
    "name": "Mayur",
    "contact": 9009900990,
    "Location": "Pune",
    "Pincode": 411057
  },
  {
    "name": "Mayur",
    "contact": 9009900990,
    "Location": "Pune",
    "Pincode": 411057
  },
  {
    "name": "Mayur",
    "contact": 9009900990,
    "Location": "Pune",
    "Pincode": 411057
  },
  {
    "name": "Mayur",
    "contact": 9009900990,
    "Location": "Pune",
    "Pincode": 411057
  },
  {
    "name": "Mayur",
    "contact": 9009900990,
    "Location": "Pune",
    "Pincode": 411057
  },
  {
    "name": "Mayur",
    "contact": 9009900990,
    "Location": "Pune",
    "Pincode": 411057
  },
  {
    "name": "Mayur",
    "contact": 9009900990,
    "Location": "Pune",
    "Pincode": 411057
  },
  {
    "name": "Mayur",
    "contact": 9009900990,
    "Location": "Pune",
    "Pincode": 411057
  },
  {
    "name": "Mayur",
    "contact": 9009900990,
    "Location": "Pune",
    "Pincode": 411057
  },
  {
    "name": "Mayur",
    "contact": 9009900990,
    "Location": "Pune",
    "Pincode": 411057
  },
  {
    "name": "Mayur",
    "contact": 9009900990,
    "Location": "Pune",
    "Pincode": 411057
  },
  {
    "name": "Mayur",
    "contact": 9009900990,
    "Location": "Pune",
    "Pincode": 411057
  },
  {
    "name": "Mayur",
    "contact": 9009900990,
    "Location": "Pune",
    "Pincode": 411057
  },
  {
    "name": "Mayur",
    "contact": 9009900990,
    "Location": "Pune",
    "Pincode": 411057
  },
  {
    "name": "Mayur",
    "contact": 9009900990,
    "Location": "Pune",
    "Pincode": 411057
  },
  {
    "name": "Mayur",
    "contact": 9009900990,
    "Location": "Pune",
    "Pincode": 411057
  },
  {
    "name": "Mayur",
    "contact": 9009900990,
    "Location": "Pune",
    "Pincode": 411057
  },
  {
    "name": "Mayur",
    "contact": 9009900990,
    "Location": "Pune",
    "Pincode": 411057
  },
  {
    "name": "Mayur",
    "contact": 9009900990,
    "Location": "Pune",
    "Pincode": 411057
  },
  {
    "name": "Mayur",
    "contact": 9009900990,
    "Location": "Pune",
    "Pincode": 411057
  },
  {
    "name": "Mayur",
    "contact": 9009900990,
    "Location": "Pune",
    "Pincode": 411057
  },
  {
    "name": "Mayur",
    "contact": 9009900990,
    "Location": "Pune",
    "Pincode": 411057
  },
  {
    "name": "Mayur",
    "contact": 9009900990,
    "Location": "Pune",
    "Pincode": 411057
  },
  {
    "name": "Mayur",
    "contact": 9009900990,
    "Location": "Pune",
    "Pincode": 411057
  },
  {
    "name": "Mayur",
    "contact": 9009900990,
    "Location": "Pune",
    "Pincode": 411057
  },
  {
    "name": "Mayur",
    "contact": 9009900990,
    "Location": "Pune",
    "Pincode": 411057
  },
  {
    "name": "Mayur",
    "contact": 9009900990,
    "Location": "Pune",
    "Pincode": 411057
  },
  {
    "name": "Mayur",
    "contact": 9009900990,
    "Location": "Pune",
    "Pincode": 411057
  },
  {
    "name": "Mayur",
    "contact": 9009900990,
    "Location": "Pune",
    "Pincode": 411057
  },
  {
    "name": "Mayur",
    "contact": 9009900990,
    "Location": "Pune",
    "Pincode": 411057
  },
  {
    "name": "Mayur",
    "contact": 9009900990,
    "Location": "Pune",
    "Pincode": 411057
  },
  {
    "name": "Mayur",
    "contact": 9009900990,
    "Location": "Pune",
    "Pincode": 411057
  },
  {
    "name": "Mayur",
    "contact": 9009900990,
    "Location": "Pune",
    "Pincode": 411057
  },
  {
    "name": "Mayur",
    "contact": 9009900990,
    "Location": "Pune",
    "Pincode": 411057
  },
  {
    "name": "Mayur",
    "contact": 9009900990,
    "Location": "Pune",
    "Pincode": 411057
  },
  {
    "name": "Mayur",
    "contact": 9009900990,
    "Location": "Pune",
    "Pincode": 411057
  },
  {
    "name": "Mayur",
    "contact": 9009900990,
    "Location": "Pune",
    "Pincode": 411057
  },
  {
    "name": "Mayur",
    "contact": 9009900990,
    "Location": "Pune",
    "Pincode": 411057
  },
  {
    "name": "Mayur",
    "contact": 9009900990,
    "Location": "Pune",
    "Pincode": 411057
  },
  {
    "name": "Mayur",
    "contact": 9009900990,
    "Location": "Pune",
    "Pincode": 411057
  },
  {
    "name": "Mayur",
    "contact": 9009900990,
    "Location": "Pune",
    "Pincode": 411057
  },
  {
    "name": "Mayur",
    "contact": 9009900990,
    "Location": "Pune",
    "Pincode": 411057
  },
  {
    "name": "Mayur",
    "contact": 9009900990,
    "Location": "Pune",
    "Pincode": 411057
  },
  {
    "name": "Mayur",
    "contact": 9009900990,
    "Location": "Pune",
    "Pincode": 411057
  },
  {
    "name": "Mayur",
    "contact": 9009900990,
    "Location": "Pune",
    "Pincode": 411057
  },
  {
    "name": "Mayur",
    "contact": 9009900990,
    "Location": "Pune",
    "Pincode": 411057
  },
  {
    "name": "Mayur",
    "contact": 9009900990,
    "Location": "Pune",
    "Pincode": 411057
  },
  {
    "name": "Mayur",
    "contact": 9009900990,
    "Location": "Pune",
    "Pincode": 411057
  },
  {
    "name": "Mayur",
    "contact": 9009900990,
    "Location": "Pune",
    "Pincode": 411057
  },
  {
    "name": "Mayur",
    "contact": 9009900990,
    "Location": "Pune",
    "Pincode": 411057
  },
  {
    "name": "Mayur",
    "contact": 9009900990,
    "Location": "Pune",
    "Pincode": 411057
  },
  {
    "name": "Mayur",
    "contact": 9009900990,
    "Location": "Pune",
    "Pincode": 411057
  },
  {
    "name": "Mayur",
    "contact": 9009900990,
    "Location": "Pune",
    "Pincode": 411057
  },
  {
    "name": "Mayur",
    "contact": 9009900990,
    "Location": "Pune",
    "Pincode": 411057
  },
  {
    "name": "Mayur",
    "contact": 9009900990,
    "Location": "Pune",
    "Pincode": 411057
  },
  {
    "name": "Mayur",
    "contact": 9009900990,
    "Location": "Pune",
    "Pincode": 411057
  },
  {
    "name": "Mayur",
    "contact": 9009900990,
    "Location": "Pune",
    "Pincode": 411057
  },
  {
    "name": "Mayur",
    "contact": 9009900990,
    "Location": "Pune",
    "Pincode": 411057
  },
  {
    "name": "Mayur",
    "contact": 9009900990,
    "Location": "Pune",
    "Pincode": 411057
  },
  {
    "name": "Mayur",
    "contact": 9009900990,
    "Location": "Pune",
    "Pincode": 411057
  },
  {
    "name": "Mayur",
    "contact": 9009900990,
    "Location": "Pune",
    "Pincode": 411057
  },
  {
    "name": "Mayur",
    "contact": 9009900990,
    "Location": "Pune",
    "Pincode": 411057
  },
  {
    "name": "Mayur",
    "contact": 9009900990,
    "Location": "Pune",
    "Pincode": 411057
  },
  {
    "name": "Mayur",
    "contact": 9009900990,
    "Location": "Pune",
    "Pincode": 411057
  },
  {
    "name": "Mayur",
    "contact": 9009900990,
    "Location": "Pune",
    "Pincode": 411057
  },
  {
    "name": "Mayur",
    "contact": 9009900990,
    "Location": "Pune",
    "Pincode": 411057
  },
  {
    "name": "Mayur",
    "contact": 9009900990,
    "Location": "Pune",
    "Pincode": 411057
  },
  {
    "name": "Mayur",
    "contact": 9009900990,
    "Location": "Pune",
    "Pincode": 411057
  },
  {
    "name": "Mayur",
    "contact": 9009900990,
    "Location": "Pune",
    "Pincode": 411057
  },
  {
    "name": "Mayur",
    "contact": 9009900990,
    "Location": "Pune",
    "Pincode": 411057
  },
  {
    "name": "Mayur",
    "contact": 9009900990,
    "Location": "Pune",
    "Pincode": 411057
  },
  {
    "name": "Mayur",
    "contact": 9009900990,
    "Location": "Pune",
    "Pincode": 411057
  },
  {
    "name": "Mayur",
    "contact": 9009900990,
    "Location": "Pune",
    "Pincode": 411057
  },
  {
    "name": "Mayur",
    "contact": 9009900990,
    "Location": "Pune",
    "Pincode": 411057
  },
  {
    "name": "Mayur",
    "contact": 9009900990,
    "Location": "Pune",
    "Pincode": 411057
  },
  {
    "name": "Mayur",
    "contact": 9009900990,
    "Location": "Pune",
    "Pincode": 411057
  },
  {
    "name": "Mayur",
    "contact": 9009900990,
    "Location": "Pune",
    "Pincode": 411057
  },
  {
    "name": "Mayur",
    "contact": 9009900990,
    "Location": "Pune",
    "Pincode": 411057
  },
  {
    "name": "Mayur",
    "contact": 9009900990,
    "Location": "Pune",
    "Pincode": 411057
  },
  {
    "name": "Mayur",
    "contact": 9009900990,
    "Location": "Pune",
    "Pincode": 411057
  },
  {
    "name": "Mayur",
    "contact": 9009900990,
    "Location": "Pune",
    "Pincode": 411057
  },
  {
    "name": "Mayur",
    "contact": 9009900990,
    "Location": "Pune",
    "Pincode": 411057
  },
  {
    "name": "Mayur",
    "contact": 9009900990,
    "Location": "Pune",
    "Pincode": 411057
  },
  {
    "name": "Mayur",
    "contact": 9009900990,
    "Location": "Pune",
    "Pincode": 411057
  },
  {
    "name": "Mayur",
    "contact": 9009900990,
    "Location": "Pune",
    "Pincode": 411057
  },
  {
    "name": "Mayur",
    "contact": 9009900990,
    "Location": "Pune",
    "Pincode": 411057
  },
  {
    "name": "Mayur",
    "contact": 9009900990,
    "Location": "Pune",
    "Pincode": 411057
  },
  {
    "name": "Mayur",
    "contact": 9009900990,
    "Location": "Pune",
    "Pincode": 411057
  },
  {
    "name": "Mayur",
    "contact": 9009900990,
    "Location": "Pune",
    "Pincode": 411057
  },
  {
    "name": "Mayur",
    "contact": 9009900990,
    "Location": "Pune",
    "Pincode": 411057
  },
  {
    "name": "Mayur",
    "contact": 9009900990,
    "Location": "Pune",
    "Pincode": 411057
  },
  {
    "name": "Mayur",
    "contact": 9009900990,
    "Location": "Pune",
    "Pincode": 411057
  },
  {
    "name": "Mayur",
    "contact": 9009900990,
    "Location": "Pune",
    "Pincode": 411057
  },
  {
    "name": "Mayur",
    "contact": 9009900990,
    "Location": "Pune",
    "Pincode": 411057
  },
  {
    "name": "Mayur",
    "contact": 9009900990,
    "Location": "Pune",
    "Pincode": 411057
  },
  {
    "name": "Mayur",
    "contact": 9009900990,
    "Location": "Pune",
    "Pincode": 411057
  },
  {
    "name": "Mayur",
    "contact": 9009900990,
    "Location": "Pune",
    "Pincode": 411057
  },
  {
    "name": "Mayur",
    "contact": 9009900990,
    "Location": "Pune",
    "Pincode": 411057
  },
  {
    "name": "Mayur",
    "contact": 9009900990,
    "Location": "Pune",
    "Pincode": 411057
  },
  {
    "name": "Mayur",
    "contact": 9009900990,
    "Location": "Pune",
    "Pincode": 411057
  },
  {
    "name": "Mayur",
    "contact": 9009900990,
    "Location": "Pune",
    "Pincode": 411057
  },
  {
    "name": "Mayur",
    "contact": 9009900990,
    "Location": "Pune",
    "Pincode": 411057
  },
  {
    "name": "Mayur",
    "contact": 9009900990,
    "Location": "Pune",
    "Pincode": 411057
  },
  {
    "name": "Mayur",
    "contact": 9009900990,
    "Location": "Pune",
    "Pincode": 411057
  },
  {
    "name": "Mayur",
    "contact": 9009900990,
    "Location": "Pune",
    "Pincode": 411057
  },
  {
    "name": "Mayur",
    "contact": 9009900990,
    "Location": "Pune",
    "Pincode": 411057
  },
  {
    "name": "Mayur",
    "contact": 9009900990,
    "Location": "Pune",
    "Pincode": 411057
  },
  {
    "name": "Mayur",
    "contact": 9009900990,
    "Location": "Pune",
    "Pincode": 411057
  },
  {
    "name": "Mayur",
    "contact": 9009900990,
    "Location": "Pune",
    "Pincode": 411057
  },
  {
    "name": "Mayur",
    "contact": 9009900990,
    "Location": "Pune",
    "Pincode": 411057
  },
  {
    "name": "Mayur",
    "contact": 9009900990,
    "Location": "Pune",
    "Pincode": 411057
  },
  {
    "name": "Mayur",
    "contact": 9009900990,
    "Location": "Pune",
    "Pincode": 411057
  },
  {
    "name": "Mayur",
    "contact": 9009900990,
    "Location": "Pune",
    "Pincode": 411057
  },
  {
    "name": "Mayur",
    "contact": 9009900990,
    "Location": "Pune",
    "Pincode": 411057
  },
  {
    "name": "Mayur",
    "contact": 9009900990,
    "Location": "Pune",
    "Pincode": 411057
  },
  {
    "name": "Mayur",
    "contact": 9009900990,
    "Location": "Pune",
    "Pincode": 411057
  },
  {
    "name": "Mayur",
    "contact": 9009900990,
    "Location": "Pune",
    "Pincode": 411057
  },
  {
    "name": "Mayur",
    "contact": 9009900990,
    "Location": "Pune",
    "Pincode": 411057
  },
  {
    "name": "Mayur",
    "contact": 9009900990,
    "Location": "Pune",
    "Pincode": 411057
  },
  {
    "name": "Mayur",
    "contact": 9009900990,
    "Location": "Pune",
    "Pincode": 411057
  },
  {
    "name": "Mayur",
    "contact": 9009900990,
    "Location": "Pune",
    "Pincode": 411057
  },
  {
    "name": "Mayur",
    "contact": 9009900990,
    "Location": "Pune",
    "Pincode": 411057
  },
  {
    "name": "Mayur",
    "contact": 9009900990,
    "Location": "Pune",
    "Pincode": 411057
  },
  {
    "name": "Mayur",
    "contact": 9009900990,
    "Location": "Pune",
    "Pincode": 411057
  },
  {
    "name": "Mayur",
    "contact": 9009900990,
    "Location": "Pune",
    "Pincode": 411057
  },
  {
    "name": "Mayur",
    "contact": 9009900990,
    "Location": "Pune",
    "Pincode": 411057
  },
  {
    "name": "Mayur",
    "contact": 9009900990,
    "Location": "Pune",
    "Pincode": 411057
  },
  {
    "name": "Mayur",
    "contact": 9009900990,
    "Location": "Pune",
    "Pincode": 411057
  },
  {
    "name": "Mayur",
    "contact": 9009900990,
    "Location": "Pune",
    "Pincode": 411057
  },
  {
    "name": "Mayur",
    "contact": 9009900990,
    "Location": "Pune",
    "Pincode": 411057
  },
  {
    "name": "Mayur",
    "contact": 9009900990,
    "Location": "Pune",
    "Pincode": 411057
  },
  {
    "name": "Mayur",
    "contact": 9009900990,
    "Location": "Pune",
    "Pincode": 411057
  },
  {
    "name": "Mayur",
    "contact": 9009900990,
    "Location": "Pune",
    "Pincode": 411057
  },
  {
    "name": "Mayur",
    "contact": 9009900990,
    "Location": "Pune",
    "Pincode": 411057
  },
  {
    "name": "Mayur",
    "contact": 9009900990,
    "Location": "Pune",
    "Pincode": 411057
  },
  {
    "name": "Mayur",
    "contact": 9009900990,
    "Location": "Pune",
    "Pincode": 411057
  },
  {
    "name": "Mayur",
    "contact": 9009900990,
    "Location": "Pune",
    "Pincode": 411057
  },
  {
    "name": "Mayur",
    "contact": 9009900990,
    "Location": "Pune",
    "Pincode": 411057
  },
  {
    "name": "Mayur",
    "contact": 9009900990,
    "Location": "Pune",
    "Pincode": 411057
  },
  {
    "name": "Mayur",
    "contact": 9009900990,
    "Location": "Pune",
    "Pincode": 411057
  },
  {
    "name": "Mayur",
    "contact": 9009900990,
    "Location": "Pune",
    "Pincode": 411057
  },
  {
    "name": "Mayur",
    "contact": 9009900990,
    "Location": "Pune",
    "Pincode": 411057
  },
  {
    "name": "Mayur",
    "contact": 9009900990,
    "Location": "Pune",
    "Pincode": 411057
  },
  {
    "name": "Mayur",
    "contact": 9009900990,
    "Location": "Pune",
    "Pincode": 411057
  },
  {
    "name": "Mayur",
    "contact": 9009900990,
    "Location": "Pune",
    "Pincode": 411057
  },
  {
    "name": "Mayur",
    "contact": 9009900990,
    "Location": "Pune",
    "Pincode": 411057
  },
  {
    "name": "Mayur",
    "contact": 9009900990,
    "Location": "Pune",
    "Pincode": 411057
  },
  {
    "name": "Mayur",
    "contact": 9009900990,
    "Location": "Pune",
    "Pincode": 411057
  },
  {
    "name": "Mayur",
    "contact": 9009900990,
    "Location": "Pune",
    "Pincode": 411057
  },
  {
    "name": "Mayur",
    "contact": 9009900990,
    "Location": "Pune",
    "Pincode": 411057
  },
  {
    "name": "Mayur",
    "contact": 9009900990,
    "Location": "Pune",
    "Pincode": 411057
  },
  {
    "name": "Mayur",
    "contact": 9009900990,
    "Location": "Pune",
    "Pincode": 411057
  },
  {
    "name": "Mayur",
    "contact": 9009900990,
    "Location": "Pune",
    "Pincode": 411057
  },
  {
    "name": "Mayur",
    "contact": 9009900990,
    "Location": "Pune",
    "Pincode": 411057
  },
  {
    "name": "Mayur",
    "contact": 9009900990,
    "Location": "Pune",
    "Pincode": 411057
  },
  {
    "name": "Mayur",
    "contact": 9009900990,
    "Location": "Pune",
    "Pincode": 411057
  },
  {
    "name": "Mayur",
    "contact": 9009900990,
    "Location": "Pune",
    "Pincode": 411057
  },
  {
    "name": "Mayur",
    "contact": 9009900990,
    "Location": "Pune",
    "Pincode": 411057
  },
  {
    "name": "Mayur",
    "contact": 9009900990,
    "Location": "Pune",
    "Pincode": 411057
  },
  {
    "name": "Mayur",
    "contact": 9009900990,
    "Location": "Pune",
    "Pincode": 411057
  },
  {
    "name": "Mayur",
    "contact": 9009900990,
    "Location": "Pune",
    "Pincode": 411057
  },
  {
    "name": "Mayur",
    "contact": 9009900990,
    "Location": "Pune",
    "Pincode": 411057
  },
  {
    "name": "Mayur",
    "contact": 9009900990,
    "Location": "Pune",
    "Pincode": 411057
  },
  {
    "name": "Mayur",
    "contact": 9009900990,
    "Location": "Pune",
    "Pincode": 411057
  },
  {
    "name": "Mayur",
    "contact": 9009900990,
    "Location": "Pune",
    "Pincode": 411057
  }

]
